{
"type": "FeatureCollection",
"name": "final_system_changes",
"crs": { "type": "name", "properties": { "name": "urn:ogc:def:crs:OGC:1.3:CRS84" } },
"features": [
{ "type": "Feature", "properties": { "class": "Building Change", "area_sq_m": 1081.5325792657832 }, "geometry": { "type": "Polygon", "coordinates": [ [ [ 77.595, 12.9712 ], [ 77.595, 12.9709 ], [ 77.5953, 12.9709 ], [ 77.5953, 12.9712 ], [ 77.595, 12.9712 ] ] ] } },
{ "type": "Feature", "properties": { "class": "Vegetation Change", "area_sq_m": 721.02314825666213 }, "geometry": { "type": "Polygon", "coordinates": [ [ [ 77.5954, 12.9708 ], [ 77.5954, 12.9706 ], [ 77.5957, 12.9706 ], [ 77.5957, 12.9708 ], [ 77.5954, 12.9708 ] ] ] } }
]
}
